TRANSPORTER-12 OBJECT AZ
1 62656U 25009AZ  26068.71026235  .00016057  00000+0  54903-3 0  9991
2 62656  97.3981 151.9913 0000987  45.3581 314.7740 15.30349724 63792
STARLINK-35270          
1 65882U 25224A   26068.16432939 -.00006037  00000+0 -19196-3 0  9999
2 65882  53.1621  13.8109 0001412 108.1544 251.9611 15.30180919 24741
